{
  "norad_id": 62022,
  "name": "STARLINK-32539",
  "history": [
    {
      "epoch": "2026-03-28T22:13:03.025344Z",
      "apogee_km": 476.38227434315104,
      "perigee_km": 473.95771139521275,
      "latitude_deg": 9.141187270397936e-06,
      "longitude_deg": -93.34337531793912,
      "height_km": 475.9796075684549,
      "semi_major_axis_km": 6853.306992869181,
      "eccentricity": 0.00017689,
      "inclination_deg": 53.1612,
      "raan_deg": 66.2584,
      "arg_perigee_deg": 85.8419,
      "mean_anomaly_deg": 274.2784,
      "mean_motion_rev_day": 15.30215097
    },
    {
      "epoch": "2026-03-29T04:29:15.560160Z",
      "apogee_km": 476.0234987116037,
      "perigee_km": 474.2731696372557,
      "latitude_deg": -4.6660726965901367e-05,
      "longitude_deg": 171.13054892464132,
      "height_km": 476.3060780024182,
      "semi_major_axis_km": 6853.285334174429,
      "eccentricity": 0.0001277,
      "inclination_deg": 53.1618,
      "raan_deg": 65.0421,
      "arg_perigee_deg": 107.2413,
      "mean_anomaly_deg": 252.8727,
      "mean_motion_rev_day": 15.30222351
    },
    {
      "epoch": "2026-03-30T02:26:00.465792Z",
      "apogee_km": 476.08317861990326,
      "perigee_km": 474.3369457884528,
      "latitude_deg": -4.219639010581242e-05,
      "longitude_deg": -163.20183629305532,
      "height_km": 476.15497926679484,
      "semi_major_axis_km": 6853.347062204178,
      "eccentricity": 0.0001274,
      "inclination_deg": 53.1608,
      "raan_deg": 60.7981,
      "arg_perigee_deg": 93.0695,
      "mean_anomaly_deg": 267.0451,
      "mean_motion_rev_day": 15.30201677
    },
    {
      "epoch": "2026-03-30T05:34:06.847680Z",
      "apogee_km": 476.1368004172318,
      "perigee_km": 474.25213426371374,
      "latitude_deg": -3.0435194185011762e-05,
      "longitude_deg": 149.03452718845938,
      "height_km": 475.9924489652077,
      "semi_major_axis_km": 6853.331467340473,
      "eccentricity": 0.0001375,
      "inclination_deg": 53.1606,
      "raan_deg": 60.1898,
      "arg_perigee_deg": 83.9063,
      "mean_anomaly_deg": 276.2094,
      "mean_motion_rev_day": 15.302069
    },
    {
      "epoch": "2026-03-31T06:38:58.238016Z",
      "apogee_km": 476.15900018671346,
      "perigee_km": 474.32640645404626,
      "latitude_deg": 1.9909534204524853e-05,
      "longitude_deg": 126.93700189624195,
      "height_km": 476.18525740454845,
      "semi_major_axis_km": 6853.37970332038,
      "eccentricity": 0.0001337,
      "inclination_deg": 53.1598,
      "raan_deg": 55.3364,
      "arg_perigee_deg": 92.7898,
      "mean_anomaly_deg": 267.3256,
      "mean_motion_rev_day": 15.30190745
    },
    {
      "epoch": "2026-04-01T14:00:02.140704Z",
      "apogee_km": 476.21807869300847,
      "perigee_km": 474.1497464415961,
      "latitude_deg": 3.187711756821912e-05,
      "longitude_deg": 9.31270807524821,
      "height_km": 476.10130187337705,
      "semi_major_axis_km": 6853.320912567302,
      "eccentricity": 0.0001509,
      "inclination_deg": 53.159,
      "raan_deg": 49.2659,
      "arg_perigee_deg": 91.0945,
      "mean_anomaly_deg": 269.0229,
      "mean_motion_rev_day": 15.30210435
    },
    {
      "epoch": "2026-04-02T21:21:05.259744Z",
      "apogee_km": 475.8649774666774,
      "perigee_km": 474.2229553071302,
      "latitude_deg": -3.7351515584444166e-05,
      "longitude_deg": -108.30317270186741,
      "height_km": 476.10113460487094,
      "semi_major_axis_km": 6853.1809663869035,
      "eccentricity": 0.0001198,
      "inclination_deg": 53.1596,
      "raan_deg": 43.2006,
      "arg_perigee_deg": 101.1654,
      "mean_anomaly_deg": 258.9481,
      "mean_motion_rev_day": 15.30257307
    },
    {
      "epoch": "2026-04-02T21:21:05.260608Z",
      "apogee_km": 475.86463480762905,
      "perigee_km": 474.2232979661794,
      "latitude_deg": -3.2823873093060944e-05,
      "longitude_deg": -108.3031729383935,
      "height_km": 476.1010682524685,
      "semi_major_axis_km": 6853.1809663869035,
      "eccentricity": 0.00011975,
      "inclination_deg": 53.1596,
      "raan_deg": 43.2006,
      "arg_perigee_deg": 101.1654,
      "mean_anomaly_deg": 258.9481,
      "mean_motion_rev_day": 15.30257307
    },
    {
      "epoch": "2026-04-03T13:01:37.646976Z",
      "apogee_km": 476.09211192765906,
      "perigee_km": 474.29242766141124,
      "latitude_deg": 1.328095253316217e-06,
      "longitude_deg": 12.884232744012277,
      "height_km": 476.0461458219367,
      "semi_major_axis_km": 6853.329269794534,
      "eccentricity": 0.0001313,
      "inclination_deg": 53.1595,
      "raan_deg": 40.1667,
      "arg_perigee_deg": 87.1914,
      "mean_anomaly_deg": 272.9237,
      "mean_motion_rev_day": 15.30207636
    },
    {
      "epoch": "2026-04-04T20:22:41.786400Z",
      "apogee_km": 476.6096340399299,
      "perigee_km": 473.6503933434178,
      "latitude_deg": -7.131620073436966e-06,
      "longitude_deg": -104.73906797351991,
      "height_km": 476.5685209464902,
      "semi_major_axis_km": 6853.267013691674,
      "eccentricity": 0.0002159,
      "inclination_deg": 53.1584,
      "raan_deg": 34.0982,
      "arg_perigee_deg": 111.4738,
      "mean_anomaly_deg": 248.6493,
      "mean_motion_rev_day": 15.30228487
    },
    {
      "epoch": "2026-04-05T02:38:55.174848Z",
      "apogee_km": 476.1755090364668,
      "perigee_km": 474.4716016731945,
      "latitude_deg": 4.368184593196959e-06,
      "longitude_deg": 159.7349394641008,
      "height_km": 476.2686628764679,
      "semi_major_axis_km": 6853.460555354831,
      "eccentricity": 0.00012431,
      "inclination_deg": 53.1598,
      "raan_deg": 32.8855,
      "arg_perigee_deg": 93.1645,
      "mean_anomaly_deg": 266.9498,
      "mean_motion_rev_day": 15.30163667
    },
    {
      "epoch": "2026-04-06T05:17:49.409664Z",
      "apogee_km": 476.1478774816169,
      "perigee_km": 474.26430466646616,
      "latitude_deg": -1.4514733400212597e-05,
      "longitude_deg": 113.757334013819,
      "height_km": 476.11835451479476,
      "semi_major_axis_km": 6853.343091074042,
      "eccentricity": 0.00013742,
      "inclination_deg": 53.1601,
      "raan_deg": 27.7283,
      "arg_perigee_deg": 90.8711,
      "mean_anomaly_deg": 269.2447,
      "mean_motion_rev_day": 15.30203007
    },
    {
      "epoch": "2026-04-07T00:06:27.571392Z",
      "apogee_km": 475.73280042978513,
      "perigee_km": 474.63448726340357,
      "latitude_deg": -4.129003778191653e-06,
      "longitude_deg": -172.81409130645784,
      "height_km": 475.7966246896785,
      "semi_major_axis_km": 6853.320643846594,
      "eccentricity": 8.013e-05,
      "inclination_deg": 53.1603,
      "raan_deg": 24.0884,
      "arg_perigee_deg": 58.6244,
      "mean_anomaly_deg": 301.4835,
      "mean_motion_rev_day": 15.30210525
    }
  ]
}